0 FENGYUN 1C DEB
1 29741U 99025AF  13282.58928260  .00000481  00000-0  13873-2 0  7887
2 29741 099.1779 299.1944 1045436 073.7070 036.8093 11.93244622292952
0 FENGYUN 1C DEB
1 29741U 99025AF  13283.99735824  .00000719  00000-0  20462-2 0  7892
2 29741 099.1776 300.1889 1045363 070.9825 325.4588 11.93243972293129
0 FENGYUN 1C DEB
1 29741U 99025AF  13286.01416137  .00000861  00000-0  24401-2 0  7919
2 29741 099.1774 301.6134 1045224 067.0801 349.0121 11.93244309293369
0 FENGYUN 1C DEB
1 29741U 99025AF  13287.54364110  .00000947  00000-0  26787-2 0  7926
2 29741 099.1775 302.6938 1045168 064.1242 079.1719 11.93246408293554
0 FENGYUN 1C DEB
1 29741U 99025AF  13288.62739980  .00000930  00000-0  26346-2 0  7931
2 29741 099.1779 303.4597 1045072 062.0253 054.6640 11.93249485293673
0 FENGYUN 1C DEB
1 29741U 99025AF  13290.12643542  .00000642  00000-0  18359-2 0  7943
2 29741 099.1781 304.5185 1044989 059.1236 014.0658 11.93253995293855
0 FENGYUN 1C DEB
1 29741U 99025AF  13291.56005417  .00000467  00000-0  13525-2 0  7951
2 29741 099.1782 305.5310 1044924 056.3488 052.4782 11.93257640294029
0 FENGYUN 1C DEB
1 29741U 99025AF  13292.90122926  .00000379  00000-0  11097-2 0  7960
2 29741 099.1784 306.4781 1044915 053.7540 053.7966 11.93259404294188
0 FENGYUN 1C DEB
1 29741U 99025AF  13294.57881421  .00000472  00000-0  13684-2 0  7976
2 29741 099.1786 307.6630 1044873 050.5064 060.2613 11.93260466294389
0 FENGYUN 1C DEB
1 29741U 99025AF  13295.58441574  .00000634  00000-0  18175-2 0  7980
2 29741 099.1786 308.3732 1044843 048.5598 060.0690 11.93260067294500
